{
  "type": "FeatureCollection",
  "features": [
    {
      "type": "Feature",
      "properties": {
        "norad_id": 39617,
        "name": "ASTRA 5B (EGNOS/PRN 123)",
        "group": "gnss",
        "lat": -0.025147600004631353,
        "lon": -162.01393401771492,
        "alt_km": 35778.80057456434,
        "timestamp": "2025-12-20T05:41:50.272327+00:00",
        "meta_object_name": "ASTRA 5B (EGNOS/PRN 123)",
        "meta_object_id": "2014-011B",
        "meta_epoch": "2025-12-19T19:52:38.508672",
        "meta_mean_motion": 1.00270681,
        "meta_eccentricity": 0.0003845,
        "meta_inclination": 0.0429,
        "meta_ra_of_asc_node": 358.0682,
        "meta_arg_of_pericenter": 262.2755,
        "meta_mean_anomaly": 149.9909,
        "meta_ephemeris_type": 0,
        "meta_classification_type": "U",
        "meta_norad_cat_id": 39617,
        "meta_element_set_no": 999,
        "meta_rev_at_epoch": 4286,
        "meta_bstar": 0,
        "meta_mean_motion_dot": 1.61e-06,
        "meta_mean_motion_ddot": 0,
        "tle_line1": "1 39617U 14011B   25353.82822348  .00000161  00000+0  00000+0 0  9994",
        "tle_line2": "2 39617   0.0429 358.0682 0003845 262.2755 149.9909  1.00270681 42860"
      },
      "geometry": {
        "type": "Point",
        "coordinates": [
          -162.01393401771492,
          -0.025147600004631353
        ]
      }
    },
    {
      "type": "Feature",
      "properties": {
        "norad_id": 39620,
        "name": "COSMOS 2492 (754)",
        "group": "gnss",
        "lat": 51.98988309435699,
        "lon": 104.1375047846773,
        "alt_km": 19159.384134286858,
        "timestamp": "2025-12-20T05:41:50.272339+00:00",
        "meta_object_name": "COSMOS 2492 (754)",
        "meta_object_id": "2014-012A",
        "meta_epoch": "2025-12-18T04:53:42.056736",
        "meta_mean_motion": 2.13103354,
        "meta_eccentricity": 0.0014217,
        "meta_inclination": 65.4043,
        "meta_ra_of_asc_node": 320.0846,
        "meta_arg_of_pericenter": 312.4931,
        "meta_mean_anomaly": 47.3782,
        "meta_ephemeris_type": 0,
        "meta_classification_type": "U",
        "meta_norad_cat_id": 39620,
        "meta_element_set_no": 999,
        "meta_rev_at_epoch": 9138,
        "meta_bstar": 0,
        "meta_mean_motion_dot": -6.4e-07,
        "meta_mean_motion_ddot": 0,
        "tle_line1": "1 39620U 14012A   25352.20395899 -.00000064  00000+0  00000+0 0  9999",
        "tle_line2": "2 39620  65.4043 320.0846 0014217 312.4931  47.3782  2.13103354 91389"
      },
      "geometry": {
        "type": "Point",
        "coordinates": [
          104.1375047846773,
          51.98988309435699
        ]
      }
    },
    {
      "type": "Feature",
      "properties": {
        "norad_id": 39635,
        "name": "IRNSS-1B",
        "group": "gnss",
        "lat": -6.553595859782558,
        "lon": -128.2889215756944,
        "alt_km": 35800.92989260434,
        "timestamp": "2025-12-20T05:41:50.272351+00:00",
        "meta_object_name": "IRNSS-1B",
        "meta_object_id": "2014-017A",
        "meta_epoch": "2025-12-19T18:39:43.398432",
        "meta_mean_motion": 1.00270773,
        "meta_eccentricity": 0.00187667,
        "meta_inclination": 29.2538,
        "meta_ra_of_asc_node": 243.4836,
        "meta_arg_of_pericenter": 246.8135,
        "meta_mean_anomaly": 293.6282,
        "meta_ephemeris_type": 0,
        "meta_classification_type": "U",
        "meta_norad_cat_id": 39635,
        "meta_element_set_no": 999,
        "meta_rev_at_epoch": 4299,
        "meta_bstar": 0,
        "meta_mean_motion_dot": 1.52e-06,
        "meta_mean_motion_ddot": 0,
        "tle_line1": "1 39635U 14017A   25353.77758563  .00000152  00000+0  00000+0 0  9991",
        "tle_line2": "2 39635  29.2538 243.4836 0018766 246.8135 293.6282  1.00270773 42997"
      },
      "geometry": {
        "type": "Point",
        "coordinates": [
          -128.2889215756944,
          -6.553595859782558
        ]
      }
    },
    {
      "type": "Feature",
      "properties": {
        "norad_id": 39727,
        "name": "LUCH 5V (SDCM/PRN 141)",
        "group": "gnss",
        "lat": -1.4492751351858448,
        "lon": -90.89082600537529,
        "alt_km": 35770.03528641023,
        "timestamp": "2025-12-20T05:41:50.272362+00:00",
        "meta_object_name": "LUCH 5V (SDCM/PRN 141)",
        "meta_object_id": "2014-023A",
        "meta_epoch": "2025-12-19T17:07:14.606400",
        "meta_mean_motion": 1.00267053,
        "meta_eccentricity": 0.00043201,
        "meta_inclination": 4.6856,
        "meta_ra_of_asc_node": 71.4767,
        "meta_arg_of_pericenter": 213.4503,
        "meta_mean_anomaly": 155.0982,
        "meta_ephemeris_type": 0,
        "meta_classification_type": "U",
        "meta_norad_cat_id": 39727,
        "meta_element_set_no": 999,
        "meta_rev_at_epoch": 4256,
        "meta_bstar": 0,
        "meta_mean_motion_dot": -2.47e-06,
        "meta_mean_motion_ddot": 0,
        "tle_line1": "1 39727U 14023A   25353.71336350 -.00000247  00000+0  00000+0 0  9996",
        "tle_line2": "2 39727   4.6856  71.4767 0004320 213.4503 155.0982  1.00267053 42569"
      },
      "geometry": {
        "type": "Point",
        "coordinates": [
          -90.89082600537529,
          -1.4492751351858448
        ]
      }
    },
    {
      "type": "Feature",
      "properties": {
        "norad_id": 39741,
        "name": "GPS BIIF-6  (PRN 06)",
        "group": "gnss",
        "lat": -8.758243046521207,
        "lon": 164.31047684894216,
        "alt_km": 20248.66590434569,
        "timestamp": "2025-12-20T05:41:50.272374+00:00",
        "meta_object_name": "GPS BIIF-6  (PRN 06)",
        "meta_object_id": "2014-026A",
        "meta_epoch": "2025-12-18T23:24:45.525888",
        "meta_mean_motion": 2.00561009,
        "meta_eccentricity": 0.00393411,
        "meta_inclination": 56.5812,
        "meta_ra_of_asc_node": 338.5339,
        "meta_arg_of_pericenter": 319.0443,
        "meta_mean_anomaly": 40.6665,
        "meta_ephemeris_type": 0,
        "meta_classification_type": "U",
        "meta_norad_cat_id": 39741,
        "meta_element_set_no": 999,
        "meta_rev_at_epoch": 8492,
        "meta_bstar": 0,
        "meta_mean_motion_dot": -8.1e-07,
        "meta_mean_motion_ddot": 0,
        "tle_line1": "1 39741U 14026A   25352.97552692 -.00000081  00000+0  00000+0 0  9997",
        "tle_line2": "2 39741  56.5812 338.5339 0039341 319.0443  40.6665  2.00561009 84924"
      },
      "geometry": {
        "type": "Point",
        "coordinates": [
          164.31047684894216,
          -8.758243046521207
        ]
      }
    },
    {
      "type": "Feature",
      "properties": {
        "norad_id": 40001,
        "name": "COSMOS 2500 (755)",
        "group": "gnss",
        "lat": -10.928413764105366,
        "lon": -45.32666612845005,
        "alt_km": 19143.921706601323,
        "timestamp": "2025-12-20T05:41:50.272385+00:00",
        "meta_object_name": "COSMOS 2500 (755)",
        "meta_object_id": "2014-032A",
        "meta_epoch": "2025-12-19T07:33:00.956160",
        "meta_mean_motion": 2.13106226,
        "meta_eccentricity": 0.0007806,
        "meta_inclination": 65.3396,
        "meta_ra_of_asc_node": 319.8089,
        "meta_arg_of_pericenter": 219.2703,
        "meta_mean_anomaly": 140.6644,
        "meta_ephemeris_type": 0,
        "meta_classification_type": "U",
        "meta_norad_cat_id": 40001,
        "meta_element_set_no": 999,
        "meta_rev_at_epoch": 8962,
        "meta_bstar": 0,
        "meta_mean_motion_dot": -5.9e-07,
        "meta_mean_motion_ddot": 0,
        "tle_line1": "1 40001U 14032A   25353.31459440 -.00000059  00000+0  00000+0 0  9996",
        "tle_line2": "2 40001  65.3396 319.8089 0007806 219.2703 140.6644  2.13106226 89625"
      },
      "geometry": {
        "type": "Point",
        "coordinates": [
          -45.32666612845005,
          -10.928413764105366
        ]
      }
    },
    {
      "type": "Feature",
      "properties": {
        "norad_id": 40105,
        "name": "GPS BIIF-7  (PRN 09)",
        "group": "gnss",
        "lat": 39.90027187181963,
        "lon": -119.84659965578784,
        "alt_km": 20091.11951997502,
        "timestamp": "2025-12-20T05:41:50.272396+00:00",
        "meta_object_name": "GPS BIIF-7  (PRN 09)",
        "meta_object_id": "2014-045A",
        "meta_epoch": "2025-12-18T01:34:21.644256",
        "meta_mean_motion": 2.00572958,
        "meta_eccentricity": 0.00325491,
        "meta_inclination": 55.2322,
        "meta_ra_of_asc_node": 95.6864,
        "meta_arg_of_pericenter": 120.0469,
        "meta_mean_anomaly": 240.2601,
        "meta_ephemeris_type": 0,
        "meta_classification_type": "U",
        "meta_norad_cat_id": 40105,
        "meta_element_set_no": 999,
        "meta_rev_at_epoch": 8244,
        "meta_bstar": 0,
        "meta_mean_motion_dot": -3.8e-07,
        "meta_mean_motion_ddot": 0,
        "tle_line1": "1 40105U 14045A   25352.06552829 -.00000038  00000+0  00000+0 0  9998",
        "tle_line2": "2 40105  55.2322  95.6864 0032549 120.0469 240.2601  2.00572958 82445"
      },
      "geometry": {
        "type": "Point",
        "coordinates": [
          -119.84659965578784,
          39.90027187181963
        ]
      }
    }
  ]
}